[{"OBJECT_NAME":"TIANMU-1 08","OBJECT_ID":"2023-101B","EPOCH":"2026-03-07T00:03:25.475616","MEAN_MOTION":15.29204229,"ECCENTRICITY":0.00063808,"INCLINATION":97.2717,"RA_OF_ASC_NODE":118.7901,"ARG_OF_PERICENTER":134.2174,"MEAN_ANOMALY":225.9592,"EPHEMERIS_TYPE":0,"CLASSIFICATION_TYPE":"U","NORAD_CAT_ID":57400,"ELEMENT_SET_NO":999,"REV_AT_EPOCH":14602,"BSTAR":1.4774513e-5,"MEAN_MOTION_DOT":3.46e-6,"MEAN_MOTION_DDOT":0},{"OBJECT_NAME":"STARLINK-32809","OBJECT_ID":"2025-019W","EPOCH":"2026-03-09T02:18:04.401792","MEAN_MOTION":15.27604303,"ECCENTRICITY":8.499e-5,"INCLINATION":42.9999,"RA_OF_ASC_NODE":92.0262,"ARG_OF_PERICENTER":278.1182,"MEAN_ANOMALY":81.9574,"EPHEMERIS_TYPE":0,"CLASSIFICATION_TYPE":"U","NORAD_CAT_ID":62849,"ELEMENT_SET_NO":999,"REV_AT_EPOCH":6216,"BSTAR":0.0010160125,"MEAN_MOTION_DOT":0.00027823,"MEAN_MOTION_DDOT":0}]
