TIANMU-1 08             
1 57400U 23101B   26066.00237819  .00000346  00000+0  14775-4 0  9993
2 57400  97.2717 118.7901 0006380 134.2174 225.9592 15.29204229146020
STARLINK-32809          
1 62849U 25019W   26068.09588428  .00027823  00000+0  10160-2 0  9993
2 62849  42.9999  92.0262 0000849 278.1182  81.9574 15.27604303 62164
